start=new Date('2023-06-21T00:00:00.000Z').valueOf();
sats=[{"SITE":"AFETR","INCLINATION":"53.0538","CLASSIFICATION_TYPE":"U","DECAY_DATE":null,"ECCENTRICITY":"0.00012970","EPHEMERIS_TYPE":"0","ELEMENT_SET_NO":"999","CENTER_NAME":"EARTH","OBJECT_ID":"2021-021B","GP_ID":"234391932","NORAD_CAT_ID":"47861","SEMIMAJOR_AXIS":"6925.400","APOAPSIS":"548.163","PERIAPSIS":"546.367","RCS_SIZE":"LARGE","MEAN_ELEMENT_THEORY":"SGP4","REF_FRAME":"TEME","OBJECT_NAME":"STARLINK-2280","REV_AT_EPOCH":"12662","MEAN_MOTION":"15.06383174","MEAN_MOTION_DOT":"0.00009593","TIME_SYSTEM":"UTC","OBJECT_TYPE":"PAYLOAD","BSTAR":"0.00066232000000","MEAN_ANOMALY":"287.2276","EPOCH":"2023-06-20T20:28:17.710464","ARG_OF_PERICENTER":"72.8855","LAUNCH_DATE":"2021-03-14","MEAN_MOTION_DDOT":"0.0000000000000","RA_OF_ASC_NODE":"43.6408","TLE_LINE1":"1 47861U 21021B   23171.85298276  .00009593  00000-0  66232-3 0  9991","FILE":"3938544","TLE_LINE2":"2 47861  53.0538  43.6408 0001297  72.8855 287.2276 15.06383174126620","PERIOD":"95.593","COUNTRY_CODE":"US"},{"INCLINATION":"53.0542","SITE":"AFETR","DECAY_DATE":null,"CLASSIFICATION_TYPE":"U","ECCENTRICITY":"0.00011450","OBJECT_ID":"2021-021C","CENTER_NAME":"EARTH","ELEMENT_SET_NO":"999","EPHEMERIS_TYPE":"0","PERIAPSIS":"546.439","APOAPSIS":"548.025","GP_ID":"234391683","SEMIMAJOR_AXIS":"6925.367","NORAD_CAT_ID":"47862","MEAN_ELEMENT_THEORY":"SGP4","RCS_SIZE":"LARGE","REV_AT_EPOCH":"12668","OBJECT_NAME":"STARLINK-2291","REF_FRAME":"TEME","MEAN_MOTION":"15.06394104","OBJECT_TYPE":"PAYLOAD","BSTAR":"0.00139580000000","MEAN_MOTION_DOT":"0.00020567","TIME_SYSTEM":"UTC","MEAN_ANOMALY":"287.3731","LAUNCH_DATE":"2021-03-14","EPOCH":"2023-06-20T19:59:46.229280","ARG_OF_PERICENTER":"72.7383","MEAN_MOTION_DDOT":"0.0000000000000","FILE":"3938544","TLE_LINE1":"1 47862U 21021C   23171.83317395  .00020567  00000-0  13958-2 0  9994","RA_OF_ASC_NODE":"38.7216","COUNTRY_CODE":"US","PERIOD":"95.593","TLE_LINE2":"2 47862  53.0542  38.7216 0001145  72.7383 287.3731 15.06394104126683"},{"RA_OF_ASC_NODE":"48.6174","TLE_LINE1":"1 47863U 21021D   23171.85805506  .00020673  00000-0  14028-2 0  9990","FILE":"3938544","PERIOD":"95.592","COUNTRY_CODE":"US","TLE_LINE2":"2 47863  53.0541  48.6174 0001216  73.7698 286.3424 15.06396825126551","MEAN_MOTION_DDOT":"0.0000000000000","MEAN_ANOMALY":"286.3424","LAUNCH_DATE":"2021-03-14","EPOCH":"2023-06-20T20:35:35.957184","ARG_OF_PERICENTER":"73.7698","MEAN_MOTION":"15.06396825","OBJECT_TYPE":"PAYLOAD","BSTAR":"0.00140280000000","MEAN_MOTION_DOT":"0.00020673","TIME_SYSTEM":"UTC","MEAN_ELEMENT_THEORY":"SGP4","RCS_SIZE":"LARGE","REV_AT_EPOCH":"12655","REF_FRAME":"TEME","OBJECT_NAME":"STARLINK-2293","CENTER_NAME":"EARTH","OBJECT_ID":"2021-021D","ELEMENT_SET_NO":"999","EPHEMERIS_TYPE":"0","APOAPSIS":"548.065","PERIAPSIS":"546.381","SEMIMAJOR_AXIS":"6925.358","GP_ID":"234392933","NORAD_CAT_ID":"47863","CLASSIFICATION_TYPE":"U","DECAY_DATE":null,"ECCENTRICITY":"0.00012160","INCLINATION":"53.0541","SITE":"AFETR"},{"MEAN_MOTION_DDOT":"0.0000000000000","COUNTRY_CODE":"US","PERIOD":"95.592","TLE_LINE2":"2 47864  53.0546  38.7535 0001378  99.5404 260.5740 15.06399460126663","FILE":"3938544","RA_OF_ASC_NODE":"38.7535","TLE_LINE1":"1 47864U 21021E   23171.83686060  .00000119  00000-0  26864-4 0  9997","OBJECT_TYPE":"PAYLOAD","BSTAR":"0.00002686400000","MEAN_MOTION_DOT":"0.00000119","TIME_SYSTEM":"UTC","MEAN_MOTION":"15.06399460","LAUNCH_DATE":"2021-03-14","EPOCH":"2023-06-20T20:05:04.755840","ARG_OF_PERICENTER":"99.5404","MEAN_ANOMALY":"260.5740","PERIAPSIS":"546.261","APOAPSIS":"548.170","SEMIMAJOR_AXIS":"6925.350","GP_ID":"234393181","NORAD_CAT_ID":"47864","OBJECT_ID":"2021-021E","CENTER_NAME":"EARTH","EPHEMERIS_TYPE":"0","ELEMENT_SET_NO":"999","REV_AT_EPOCH":"12666","REF_FRAME":"TEME","OBJECT_NAME":"STARLINK-2304","MEAN_ELEMENT_THEORY":"SGP4","RCS_SIZE":"LARGE","INCLINATION":"53.0546","SITE":"AFETR","ECCENTRICITY":"0.00013780","DECAY_DATE":null,"CLASSIFICATION_TYPE":"U"},{"SITE":"AFETR","INCLINATION":"53.0548","CLASSIFICATION_TYPE":"U","DECAY_DATE":null,"ECCENTRICITY":"0.00008160","ELEMENT_SET_NO":"999","EPHEMERIS_TYPE":"0","CENTER_NAME":"EARTH","OBJECT_ID":"2021-021F","GP_ID":"234391433","SEMIMAJOR_AXIS":"6925.356","NORAD_CAT_ID":"47865","APOAPSIS":"547.786","PERIAPSIS":"546.656","RCS_SIZE":"LARGE","MEAN_ELEMENT_THEORY":"SGP4","REF_FRAME":"TEME","OBJECT_NAME":"STARLINK-2310","REV_AT_EPOCH":"12665","MEAN_MOTION":"15.06397699","MEAN_MOTION_DOT":"0.00012016","TIME_SYSTEM":"UTC","BSTAR":"0.00082426000000","OBJECT_TYPE":"PAYLOAD","MEAN_ANOMALY":"279.3906","EPOCH":"2023-06-20T19:57:04.466880","ARG_OF_PERICENTER":"80.7176","LAUNCH_DATE":"2021-03-14","MEAN_MOTION_DDOT":"0.0000000000000","RA_OF_ASC_NODE":"48.7211","TLE_LINE1":"1 47865U 21021F   23171.83130170  .00012016  00000-0  82426-3 0  9998","FILE":"3938544","TLE_LINE2":"2 47865  53.0548  48.7211 0000816  80.7176 279.3906 15.06397699126655","PERIOD":"95.592","COUNTRY_CODE":"US"},{"DECAY_DATE":null,"CLASSIFICATION_TYPE":"U","ECCENTRICITY":"0.00010210","INCLINATION":"53.0547","SITE":"AFETR","MEAN_ELEMENT_THEORY":"SGP4","RCS_SIZE":"LARGE","REV_AT_EPOCH":"12668","REF_FRAME":"TEME","OBJECT_NAME":"STARLINK-2320","OBJECT_ID":"2021-021G","CENTER_NAME":"EARTH","EPHEMERIS_TYPE":"0","ELEMENT_SET_NO":"999","PERIAPSIS":"546.538","APOAPSIS":"547.952","SEMIMAJOR_AXIS":"6925.380","GP_ID":"234392183","NORAD_CAT_ID":"47866","MEAN_ANOMALY":"281.7082","LAUNCH_DATE":"2021-03-14","EPOCH":"2023-06-20T16:52:39.142848","ARG_OF_PERICENTER":"78.4022","MEAN_MOTION":"15.06389726","OBJECT_TYPE":"PAYLOAD","BSTAR":"-0.00085366000000","TIME_SYSTEM":"UTC","MEAN_MOTION_DOT":"-0.00012970","FILE":"3938544","TLE_LINE1":"1 47866U 21021G   23171.70323082 -.00012970  00000-0 -85366-3 0  9998","RA_OF_ASC_NODE":"49.3075","COUNTRY_CODE":"US","PERIOD":"95.593","TLE_LINE2":"2 47866  53.0547  49.3075 0001021  78.4022 281.7082 15.06389726126680","MEAN_MOTION_DDOT":"0.0000000000000"},{"INCLINATION":"53.0543","SITE":"AFETR","DECAY_DATE":null,"CLASSIFICATION_TYPE":"U","ECCENTRICITY":"0.00013420","OBJECT_ID":"2021-021H","CENTER_NAME":"EARTH","EPHEMERIS_TYPE":"0","ELEMENT_SET_NO":"999","PERIAPSIS":"546.312","APOAPSIS":"548.171","GP_ID":"234392434","NORAD_CAT_ID":"47867","SEMIMAJOR_AXIS":"6925.377","MEAN_ELEMENT_THEORY":"SGP4","RCS_SIZE":"LARGE","REV_AT_EPOCH":"12664","REF_FRAME":"TEME","OBJECT_NAME":"STARLINK-2321","MEAN_MOTION":"15.06390792","BSTAR":"0.00117920000000","OBJECT_TYPE":"PAYLOAD","MEAN_MOTION_DOT":"0.00017322","TIME_SYSTEM":"UTC","MEAN_ANOMALY":"286.5514","LAUNCH_DATE":"2021-03-14","ARG_OF_PERICENTER":"73.5622","EPOCH":"2023-06-20T19:54:27.884160","MEAN_MOTION_DDOT":"0.0000000000000","FILE":"3938544","TLE_LINE1":"1 47867U 21021H   23171.82948940  .00017322  00000-0  11792-2 0  9993","RA_OF_ASC_NODE":"38.7385","COUNTRY_CODE":"US","PERIOD":"95.593","TLE_LINE2":"2 47867  53.0543  38.7385 0001342  73.5622 286.5514 15.06390792126645"},{"OBJECT_NAME":"STARLINK-2323","REF_FRAME":"TEME","REV_AT_EPOCH":"12738","RCS_SIZE":"LARGE","MEAN_ELEMENT_THEORY":"SGP4","GP_ID":"234392682","NORAD_CAT_ID":"47868","SEMIMAJOR_AXIS":"6925.380","PERIAPSIS":"546.378","APOAPSIS":"548.112","EPHEMERIS_TYPE":"0","ELEMENT_SET_NO":"999","OBJECT_ID":"2021-021J","CENTER_NAME":"EARTH","ECCENTRICITY":"0.00012520","DECAY_DATE":null,"CLASSIFICATION_TYPE":"U","SITE":"AFETR","INCLINATION":"53.0548","TLE_LINE2":"2 47868  53.0548 349.0684 0001252  97.6640 262.4491 15.06389732127389","COUNTRY_CODE":"US","PERIOD":"95.593","FILE":"3938544","RA_OF_ASC_NODE":"349.0684","TLE_LINE1":"1 47868U 21021J   23171.75667592 -.00000212  00000-0  46360-5 0  9990","MEAN_MOTION_DDOT":"0.0000000000000","EPOCH":"2023-06-20T18:09:36.799488","ARG_OF_PERICENTER":"97.6640","LAUNCH_DATE":"2021-03-14","MEAN_ANOMALY":"262.4491","TIME_SYSTEM":"UTC","MEAN_MOTION_DOT":"-0.00000212","OBJECT_TYPE":"PAYLOAD","BSTAR":"0.00000463600000","MEAN_MOTION":"15.06389732"},{"CENTER_NAME":"EARTH","OBJECT_ID":"2021-021K","ELEMENT_SET_NO":"999","EPHEMERIS_TYPE":"0","APOAPSIS":"548.042","PERIAPSIS":"546.438","NORAD_CAT_ID":"47869","GP_ID":"234391933","SEMIMAJOR_AXIS":"6925.375","MEAN_ELEMENT_THEORY":"SGP4","RCS_SIZE":"LARGE","REV_AT_EPOCH":"12679","REF_FRAME":"TEME","OBJECT_NAME":"STARLINK-2324","INCLINATION":"53.0534","SITE":"AFETR","CLASSIFICATION_TYPE":"U","DECAY_DATE":null,"ECCENTRICITY":"0.00011580","MEAN_MOTION_DDOT":"0.0000000000000","RA_OF_ASC_NODE":"38.7576","TLE_LINE1":"1 47869U 21021K   23171.82579572  .00018883  00000-0  12835-2 0  9998","FILE":"3938544","PERIOD":"95.593","COUNTRY_CODE":"US","TLE_LINE2":"2 47869  53.0534  38.7576 0001158 109.7841 250.3273 15.06391375126794","MEAN_MOTION":"15.06391375","OBJECT_TYPE":"PAYLOAD","BSTAR":"0.00128350000000","TIME_SYSTEM":"UTC","MEAN_MOTION_DOT":"0.00018883","MEAN_ANOMALY":"250.3273","LAUNCH_DATE":"2021-03-14","EPOCH":"2023-06-20T19:49:08.750208","ARG_OF_PERICENTER":"109.7841"},{"MEAN_MOTION_DDOT":"0.0000000000000","FILE":"3938544","RA_OF_ASC_NODE":"63.6764","TLE_LINE1":"1 47870U 21021L   23171.84377056  .00015009  00000-0  10246-2 0  9996","COUNTRY_CODE":"US","PERIOD":"95.593","TLE_LINE2":"2 47870  53.0547  63.6764 0001205  78.6728 281.4396 15.06390257126235","MEAN_MOTION":"15.06390257","OBJECT_TYPE":"PAYLOAD","BSTAR":"0.00102460000000","MEAN_MOTION_DOT":"0.00015009","TIME_SYSTEM":"UTC","MEAN_ANOMALY":"281.4396","LAUNCH_DATE":"2021-03-14","ARG_OF_PERICENTER":"78.6728","EPOCH":"2023-06-20T20:15:01.776384","OBJECT_ID":"2021-021L","CENTER_NAME":"EARTH","ELEMENT_SET_NO":"999","EPHEMERIS_TYPE":"0","PERIAPSIS":"546.409","APOAPSIS":"548.078","GP_ID":"234391684","SEMIMAJOR_AXIS":"6925.378","NORAD_CAT_ID":"47870","MEAN_ELEMENT_THEORY":"SGP4","RCS_SIZE":"LARGE","REV_AT_EPOCH":"12623","REF_FRAME":"TEME","OBJECT_NAME":"STARLINK-2326","INCLINATION":"53.0547","SITE":"AFETR","DECAY_DATE":null,"CLASSIFICATION_TYPE":"U","ECCENTRICITY":"0.00012050"}];
